format  = 'OEF1.1'       ! file format
rectype = 'ML'           ! record type (1L/ML)
refsys  = ECLM J2000     ! default reference system
END_OF_HEADER
mult_1
! Equinoctial elements: a, e*sin(LP), e*cos(LP), tan(i/2)*sin(LN), tan(i/2)*cos(LN), mean long.
 EQU   3.21873573688617E+00  0.137452057267014  0.136348139767619 -0.002451987891385 -0.000739110262323  11.5546587731746
 MJD     50349.49432639 TDT
 MAG  14.711  0.150
! RMS    1.33025E-03   2.52267E-03   7.24724E-03   1.14521E-05   1.60576E-05   2.49584E-01
! EIG   3.24289E-07   4.49703E-07   1.05871E-05   1.59516E-04   1.87765E-03   8.72241E-03
! WEA  -0.08204  -0.28178  -0.82408  -0.00130  -0.00135  -0.48452
 COV   1.769564528148195E-06  2.385638765387410E-06  4.120091757883934E-06
 COV   6.301796210432381E-09  5.230380275905565E-09  2.399522855866273E-04
 COV   6.363878194815595E-06  1.714051969494577E-05  2.688421944351199E-08
 COV   2.725387206250158E-08  6.295219364663806E-04  5.252255854892249E-05
 COV   8.277924205060416E-08  8.709619353346315E-08  1.684573483638096E-03
 COV   1.311502710331182E-10  1.303637930592144E-10  2.641502584446265E-06
 COV   2.578475152627894E-10  2.672356894228626E-06  6.229201494707888E-02
 NOR   2.467125016007120E+08 -4.014100855482294E+10  7.501779484149526E+08
 NOR   2.120070403748743E+09  5.784967761989652E+07  3.843343578225529E+08
 NOR   7.304237307266852E+12 -1.355665744196482E+11 -3.208132162244531E+09
 NOR   1.473339253086052E+10 -6.999620630501556E+10  2.532114780600633E+09
 NOR  -7.913228922187061E+09 -7.988243737769479E+08  1.299036959163100E+09
 NOR   4.924750372170786E+12  3.137594612947086E+11  1.595824681524407E+07
 NOR   2.897838242272820E+10 -1.420636917337976E+08  6.707752308511238E+08
mult_2
! Equinoctial elements: a, e*sin(LP), e*cos(LP), tan(i/2)*sin(LN), tan(i/2)*cos(LN), mean long.
 EQU   3.21866097265746E+00  0.137204599479778  0.135623639794943 -0.002453125364057 -0.000740294896079  11.5302692006853
 MJD     50349.49432639 TDT
 MAG  14.706  0.150
! RMS    1.35705E-03   2.53165E-03   7.28142E-03   1.14550E-05   1.61119E-05   2.50691E-01
! EIG   3.24860E-07   4.49926E-07   1.06097E-05   1.59745E-04   1.87432E-03   8.76787E-03
! WEA  -0.08888  -0.28139  -0.82363  -0.00129  -0.00135  -0.48431
 COV   1.841581047703154E-06  2.542566287127995E-06  4.605376112279837E-06
 COV   7.035684106938020E-09  6.033271869424620E-09  2.555744079700308E-04
 COV   6.409236280504040E-06  1.728736449574712E-05  2.699493992646243E-08
 COV   2.748421220515129E-08  6.345661883688831E-04  5.301904606729976E-05
 COV   8.318990935548400E-08  8.788881527694787E-08  1.700631961191636E-03
 COV   1.312165040282097E-10  1.309609565174154E-10  2.654931761481443E-06
 COV   2.595922456030484E-10  2.697608484772649E-06  6.284598109487557E-02
 NOR   2.461838749836493E+08 -4.001922152105791E+10  7.398264908317598E+08
 NOR   2.116099219809761E+09  5.778625428526479E+07  3.829676867946255E+08
 NOR   7.280369499514789E+12 -1.336894774659521E+11 -3.210378396112288E+09
 NOR   1.470892910298429E+10 -6.973115727326300E+10  2.470721647556458E+09
 NOR  -7.891082983415846E+09 -7.942972528299718E+08  1.280384915791768E+09
 NOR   4.919854912966448E+12  3.136406263166882E+11  1.604312645207876E+07
 NOR   2.894499747783584E+10 -1.417517404428064E+08  6.678873413579763E+08
mult_3
! Equinoctial elements: a, e*sin(LP), e*cos(LP), tan(i/2)*sin(LN), tan(i/2)*cos(LN), mean long.
 EQU   3.21857984442556E+00  0.136956373485271  0.134896415668711 -0.002454262030358 -0.000741483493226  11.5057806198624
 MJD     50349.49432639 TDT
 MAG  14.702  0.150
! RMS    1.38631E-03   2.54064E-03   7.31571E-03   1.14578E-05   1.61664E-05   2.51804E-01
! EIG   3.25433E-07   4.50148E-07   1.06324E-05   1.59965E-04   1.87103E-03   8.81388E-03
! WEA  -0.09564  -0.28098  -0.82315  -0.00128  -0.00134  -0.48407
 COV   1.921852990079518E-06  2.700786580141388E-06  5.095508208408101E-06
 COV   7.770524920730756E-09  6.843722097898047E-09  2.713546713187015E-04
 COV   6.454858964705246E-06  1.743525173500047E-05  2.710589009722561E-08
 COV   2.771636910504733E-08  6.396488657735867E-04  5.351957278627076E-05
 COV   8.360195219446506E-08  8.868838181720738E-08  1.716832403598079E-03
 COV   1.312823136681704E-10  1.315610274322131E-10  2.668422572258630E-06
 COV   2.613513613283695E-10  2.723101591662145E-06  6.340505706414543E-02
 NOR   2.456579586738378E+08 -3.989777486441856E+10  7.295042087831488E+08
 NOR   2.112140398180762E+09  5.772297292862000E+07  3.816048339325750E+08
 NOR   7.256542092663072E+12 -1.318179473908954E+11 -3.212615261870825E+09
 NOR   1.468446621859586E+10 -6.946661302096695E+10  2.410091443383665E+09
 NOR  -7.868987943135804E+09 -7.897716541586387E+08  1.261802688850370E+09
 NOR   4.914968548292287E+12  3.135218943757731E+11  1.612765748888036E+07
 NOR   2.891173699329893E+10 -1.414397984069350E+08  6.650057787570648E+08
mult_4
! Equinoctial elements: a, e*sin(LP), e*cos(LP), tan(i/2)*sin(LN), tan(i/2)*cos(LN), mean long.
 EQU   3.21849235021867E+00  0.136707350551820  0.134166354509664 -0.002455398056718 -0.000742676259115  11.4811899323760
 MJD     50349.49432639 TDT
 MAG  14.697  0.150
! RMS    1.41789E-03   2.54966E-03   7.35012E-03   1.14607E-05   1.62211E-05   2.52922E-01
! EIG   3.26009E-07   4.50371E-07   1.06551E-05   1.60175E-04   1.86781E-03   8.86045E-03
! WEA  -0.10232  -0.28057  -0.82264  -0.00128  -0.00134  -0.48381
 COV   2.010412934292021E-06  2.860325509918141E-06  5.590580555860909E-06
 COV   8.506409842196849E-09  7.661898337334049E-09  2.872963469047325E-04
 COV   6.500753776856480E-06  1.758420921161737E-05  2.721708554959899E-08
 COV   2.795039176527497E-08  6.447709634443088E-04  5.402424396200363E-05
 COV   8.401543682538815E-08  8.949507888085254E-08  1.733178391610378E-03
 COV   1.313477128835014E-10  1.321641180472707E-10  2.681977225005577E-06
 COV   2.631252731867880E-10  2.748842429215066E-06  6.396937046032389E-02
 NOR   2.451346645363102E+08 -3.977665014569120E+10  7.192097928783727E+08
 NOR   2.108193314675942E+09  5.765982390632226E+07  3.802455936659957E+08
 NOR   7.232751788570366E+12 -1.299517679046253E+11 -3.214843208319343E+09
 NOR   1.466000050636407E+10 -6.920253710090926E+10  2.350217227913972E+09
 NOR  -7.846940560899567E+09 -7.852470382471246E+08  1.243288120485237E+09
 NOR   4.910090545737778E+12  3.134032484649817E+11  1.621185208790143E+07
 NOR   2.887859577303818E+10 -1.411278230128939E+08  6.621301475678356E+08
mult_5
! Equinoctial elements: a, e*sin(LP), e*cos(LP), tan(i/2)*sin(LN), tan(i/2)*cos(LN), mean long.
 EQU   3.21839848709263E+00  0.136457501854928  0.133433343370568 -0.002456533606632 -0.000743873398746  11.4564940157040
 MJD     50349.49432639 TDT
 MAG  14.692  0.150
! RMS    1.45165E-03   2.55870E-03   7.38466E-03   1.14635E-05   1.62762E-05   2.54045E-01
! EIG   3.26586E-07   4.50593E-07   1.06780E-05   1.60375E-04   1.86463E-03   8.90757E-03
! WEA  -0.10894  -0.28014  -0.82210  -0.00127  -0.00134  -0.48353
 COV   2.107297475688739E-06  3.021209138813409E-06  6.090687059698577E-06
 COV   9.243428389529410E-09  8.487970451873099E-09  3.034027499630014E-04
 COV   6.546927664286445E-06  1.773426334093969E-05  2.732853903476403E-08
 COV   2.818632715087229E-08  6.499334262033998E-04  5.453316186647158E-05
 COV   8.443042212831615E-08  9.030908800963756E-08  1.749673396086921E-03
 COV   1.314127024080673E-10  1.327703293771140E-10  2.695597665759400E-06
 COV   2.649143872002678E-10  2.774837055733458E-06  6.453904487780299E-02
 NOR   2.446139059348159E+08 -3.965582924176273E+10  7.089419620683398E+08
 NOR   2.104257353927588E+09  5.759679760449183E+07  3.788897641614450E+08
 NOR   7.208995351083082E+12 -1.280907281074508E+11 -3.217062668626163E+09
 NOR   1.463552862917098E+10 -6.893889379428319E+10  2.291092485477940E+09
 NOR  -7.824937651314166E+09 -7.807228719324292E+08  1.224839113829266E+09
 NOR   4.905220183411659E+12  3.132846715770878E+11  1.629572205675774E+07
 NOR   2.884556871070754E+10 -1.408157721249423E+08  6.592600607698706E+08
mult_6
! Equinoctial elements: a, e*sin(LP), e*cos(LP), tan(i/2)*sin(LN), tan(i/2)*cos(LN), mean long.
 EQU   3.21829825101796E+00  0.136206793713612  0.132697255283557 -0.002457668862166 -0.000745075139542  11.4316892512957
 MJD     50349.49432639 TDT
 MAG  14.687  0.150
! RMS    1.48746E-03   2.56776E-03   7.41933E-03   1.14664E-05   1.63315E-05   2.55175E-01
! EIG   3.27165E-07   4.50816E-07   1.07009E-05   1.60565E-04   1.86151E-03   8.95525E-03
! WEA  -0.11548  -0.27970  -0.82153  -0.00126  -0.00134  -0.48323
 COV   2.212549506508793E-06  3.183467290459227E-06  6.595933983560211E-06
 COV   9.981684433531136E-09  9.322128844286916E-09  3.196775977340558E-04
 COV   6.593388761498113E-06  1.788544443198426E-05  2.744026622380095E-08
 COV   2.842422851031214E-08  6.551373360043327E-04  5.504644211262876E-05
 COV   8.484697740549008E-08  9.113061257287850E-08  1.766321333776420E-03
 COV   1.314772869772719E-10  1.333797783615711E-10  2.709286199868917E-06
 COV   2.667191558624196E-10  2.801092251027081E-06  6.511421961173491E-02
 NOR   2.440955869203901E+08 -3.953529193728340E+10  6.986992649767809E+08
 NOR   2.100331829238891E+09  5.753388310098922E+07  3.775371204371193E+08
 NOR   7.185269143884121E+12 -1.262345867012942E+11 -3.219274100406134E+09
 NOR   1.461104680286189E+10 -6.867564299034289E+10  2.232710002182577E+09
 NOR  -7.802975648417696E+09 -7.761985403563062E+08  1.206453278529927E+09
 NOR   4.900356653006858E+12  3.131661442199469E+11  1.637928045831009E+07
 NOR   2.881265012117402E+10 -1.405035979769398E+08  6.563950841386950E+08
